NORAD_CAT_ID,OBJECT_NAME,OBJECT_TYPE,EPOCH,MEAN_MOTION,ECCENTRICITY,INCLINATION,RA_OF_ASC_NODE,ARG_OF_PERICENTER,MEAN_ANOMALY,BSTAR,MEAN_MOTION_DOT,MEAN_MOTION_DDOT,TLE_LINE0,TLE_LINE1,TLE_LINE2,SEMIMAJOR_AXIS,PERIOD,APOGEE,PERIGEE,DECAYED
54779.0,STARLINK-5447,PAYLOAD,2024-08-11 00:49:14,15.0886101,0.0001435,53.2151,93.4411,93.9921,266.1235,0.00051729,7.959e-05,0.0,0 STARLINK-5447,1 54779U 22175X   24224.03419008  .00007959  00000-0  51729-3 0  9995,2 54779  53.2151  93.4411 0001435  93.9921 266.1235 15.08861010 91060,6917.816,95.436,540.674,538.688,0.0
54779.0,STARLINK-5447,PAYLOAD,2024-08-11 08:46:10,15.08842089,0.0001443,53.2154,91.9552,96.3667,263.749,0.00030141,4.513e-05,0.0,0 STARLINK-5447,1 54779U 22175X   24224.36539693  .00004513  00000-0  30141-3 0  9992,2 54779  53.2154  91.9552 0001443  96.3667 263.7490 15.08842089 91112,6917.874,95.437,540.737,538.741,0.0
54779.0,STARLINK-5447,PAYLOAD,2024-08-11 21:29:15,15.08856416,0.0001512,53.2163,89.5779,90.1502,269.9664,0.00029816,4.463e-05,0.0,0 STARLINK-5447,1 54779U 22175X   24224.89531340  .00004463  00000-0  29816-3 0  9992,2 54779  53.2163  89.5779 0001512  90.1502 269.9664 15.08856416 93351,6917.83,95.437,540.741,538.649,0.0
54779.0,STARLINK-5447,PAYLOAD,2024-08-12 00:40:01,15.08866284,0.0001806,53.2149,88.9787,105.1472,254.972,0.0010211,0.00016012,0.0,0 STARLINK-5447,1 54779U 22175X   24225.02779024  .00016012  00000-0  10211-2 0  9992,2 54779  53.2149  88.9787 0001806 105.1472 254.9720 15.08866284 91210,6917.8,95.436,540.914,538.416,0.0
54779.0,STARLINK-5447,PAYLOAD,2024-08-12 08:36:57,15.08837042,0.0002602,53.2142,87.4969,77.3819,282.7464,9.8729e-05,1.283e-05,0.0,0 STARLINK-5447,1 54779U 22175X   24225.35899991  .00001283  00000-0  98729-4 0  9990,2 54779  53.2142  87.4969 0002602  77.3819 282.7464 15.08837042 91268,6917.889,95.438,541.554,537.954,0.0
54779.0,STARLINK-5447,PAYLOAD,2024-08-12 14:58:29,15.08852276,0.000168,53.2159,86.303,93.0283,267.0901,0.00079149,0.00012335,0.0,0 STARLINK-5447,1 54779U 22175X   24225.62395315  .00012335  00000-0  79149-3 0  9995,2 54779  53.2159  86.3030 0001680  93.0283 267.0901 15.08852276 93460,6917.843,95.437,540.87,538.546,0.0
54779.0,STARLINK-5447,PAYLOAD,2024-08-12 21:20:01,15.08880547,0.0001838,53.2165,85.1157,85.1953,274.9249,0.0018532,0.00029362,0.0,0 STARLINK-5447,1 54779U 22175X   24225.88890897  .00029362  00000-0  18532-2 0  9994,2 54779  53.2165  85.1157 0001838  85.1953 274.9249 15.08880547 93504,6917.756,95.435,540.893,538.35,0.0
54779.0,STARLINK-5447,PAYLOAD,2024-08-12 22:55:24,15.08888706,0.0001607,53.2162,84.8176,95.1976,264.9199,0.0032313,0.00051584,0.0,0 STARLINK-5447,1 54779U 22175X   24225.95514722  .00051584  00000-0  32313-2 0  9996,2 54779  53.2162  84.8176 0001607  95.1976 264.9199 15.08888706 91357,6917.732,95.434,540.708,538.485,0.0
54779.0,STARLINK-5447,PAYLOAD,2024-08-13 14:49:17,15.08811334,0.0001408,53.2176,81.8409,124.0882,236.0244,0.0011576,0.00018169,0.0,0 STARLINK-5447,1 54779U 22175X   24226.61756741  .00018169  00000-0  11576-2 0  9999,2 54779  53.2176  81.8409 0001408 124.0882 236.0244 15.08811334 93610,6917.968,95.439,540.807,538.859,0.0
54779.0,STARLINK-5447,PAYLOAD,2024-08-13 21:10:51,15.08793581,9.7e-06,53.2172,80.6523,115.8158,244.2844,0.0015248,0.00024032,0.0,0 STARLINK-5447,1 54779U 22175X   24226.88253705  .00024032  00000-0  15248-2 0  9996,2 54779  53.2172  80.6523 0000097 115.8158 244.2844 15.08793581 91491,6918.022,95.44,539.954,539.82,0.0
54779.0,STARLINK-5447,PAYLOAD,2024-08-14 06:43:10,15.08841323,0.0001552,53.2169,78.8735,108.7285,251.3876,0.0034375,0.00054848,0.0,0 STARLINK-5447,1 54779U 22175X   24227.27998319  .00054848  00000-0  34375-2 0  9997,2 54779  53.2169  78.8735 0001552 108.7285 251.3876 15.08841323 91559,6917.876,95.437,540.815,538.668,0.0
54779.0,STARLINK-5447,PAYLOAD,2024-08-14 19:26:15,15.08879491,0.0001498,53.217,76.4952,109.9869,250.1285,0.0022059,0.00035032,0.0,0 STARLINK-5447,1 54779U 22175X   24227.80989654  .00035032  00000-0  22059-2 0  9998,2 54779  53.2170  76.4952 0001498 109.9869 250.1285 15.08879491 91633,6917.76,95.435,540.661,538.588,0.0
54779.0,STARLINK-5447,PAYLOAD,2024-08-14 21:01:38,15.08880455,0.0001404,53.217,76.1972,109.92,250.1943,0.0020493,0.00032514,0.0,0 STARLINK-5447,1 54779U 22175X   24227.87613502  .00032514  00000-0  20493-2 0  9993,2 54779  53.2170  76.1972 0001404 109.9200 250.1943 15.08880455 93802,6917.757,95.435,540.593,538.65,0.0
54779.0,STARLINK-5447,PAYLOAD,2024-08-15 20:52:24,15.08866477,0.0001407,53.2174,71.7374,106.159,253.9557,0.0023617,0.00037526,0.0,0 STARLINK-5447,1 54779U 22175X   24228.86972765  .00037526  00000-0  23617-2 0  9991,2 54779  53.2174  71.7374 0001407 106.1590 253.9557 15.08866477 91793,6917.799,95.436,540.638,538.691,0.0
54779.0,STARLINK-5447,PAYLOAD,2024-08-17 12:37:02,15.08832309,0.0001333,53.2158,64.2996,114.5973,245.5158,0.0018141,0.00028695,0.0,0 STARLINK-5447,1 54779U 22175X   24230.52572515  .00028695  00000-0  18141-2 0  9999,2 54779  53.2158  64.2996 0001333 114.5973 245.5158 15.08832309 92048,6917.904,95.438,540.691,538.847,0.0
54779.0,STARLINK-5447,PAYLOAD,2024-08-18 12:27:49,15.08853546,0.0001149,53.2162,59.8382,127.509,232.6007,0.0010271,0.00016102,0.0,0 STARLINK-5447,1 54779U 22175X   24231.51932554  .00016102  00000-0  10271-2 0  9998,2 54779  53.2162  59.8382 0001149 127.5090 232.6007 15.08853546 92193,6917.839,95.437,540.499,538.909,0.0
54779.0,STARLINK-5447,PAYLOAD,2024-08-18 18:49:22,15.08854731,0.0001239,53.2159,58.6492,107.6562,252.4566,0.00075653,0.00011778,0.0,0 STARLINK-5447,1 54779U 22175X   24231.78428424  .00011778  00000-0  75653-3 0  9993,2 54779  53.2159  58.6492 0001239 107.6562 252.4566 15.08854731 94392,6917.835,95.437,540.557,538.843,0.0
54779.0,STARLINK-5447,PAYLOAD,2024-08-19 12:18:36,15.08843738,0.0001821,53.2158,55.3792,90.9416,269.1785,0.00021563,3.146e-05,0.0,0 STARLINK-5447,1 54779U 22175X   24232.51292744  .00003146  00000-0  21563-3 0  9990,2 54779  53.2158  55.3792 0001821  90.9416 269.1785 15.08843738 92343,6917.869,95.437,540.994,538.474,0.0
54779.0,STARLINK-5447,PAYLOAD,2024-08-20 05:47:51,15.088397,0.000159,53.2156,52.108,90.0777,270.0397,0.00020344,2.951e-05,0.0,0 STARLINK-5447,1 54779U 22175X   24233.24156934  .00002951  00000-0  20344-3 0  9990,2 54779  53.2156  52.1080 0001590  90.0777 270.0397 15.08839700 92456,6917.881,95.438,540.846,538.646,0.0
54779.0,STARLINK-5447,PAYLOAD,2024-08-21 12:00:11,15.08838143,0.0001537,53.2165,46.4553,104.2444,255.8719,0.00014551,2.028e-05,0.0,0 STARLINK-5447,1 54779U 22175X   24234.50013062  .00002028  00000-0  14551-3 0  9992,2 54779  53.2165  46.4553 0001537 104.2444 255.8719 15.08838143 92647,6917.886,95.438,540.814,538.688,0.0
54779.0,STARLINK-5447,PAYLOAD,2024-08-21 15:10:57,15.08846758,0.0001646,53.2167,45.86,98.1462,261.9717,-0.00017279,-3.038e-05,0.0,0 STARLINK-5447,1 54779U 22175X   24234.63260514 -.00003038  00000-0 -17279-3 0  9996,2 54779  53.2167  45.8600 0001646  98.1462 261.9717 15.08846758 94826,6917.86,95.437,540.863,538.586,0.0
54779.0,STARLINK-5447,PAYLOAD,2024-08-21 18:21:44,15.0881767,0.0001618,53.2174,45.2655,102.1244,257.993,0.00078166,0.00012166,0.0,0 STARLINK-5447,1 54779U 22175X   24234.76510376  .00012166  00000-0  78166-3 0  9996,2 54779  53.2174  45.2655 0001618 102.1244 257.9930 15.08817670 92686,6917.949,95.439,540.933,538.694,0.0
54779.0,STARLINK-5447,PAYLOAD,2024-08-22 03:54:02,15.08842372,0.0001486,53.2177,43.4817,96.438,263.6781,0.00013977,1.937e-05,0.0,0 STARLINK-5447,1 54779U 22175X   24235.16252891  .00001937  00000-0  13977-3 0  9999,2 54779  53.2177  43.4817 0001486  96.4380 263.6781 15.08842372 92740,6917.873,95.437,540.766,538.71,0.0
